[{"OBJECT_NAME":"FLOCK 4G-12","OBJECT_ID":"2025-009S","EPOCH":"2026-03-09T17:16:21.445824","MEAN_MOTION":15.27059194,"ECCENTRICITY":0.00028933,"INCLINATION":97.4059,"RA_OF_ASC_NODE":151.1894,"ARG_OF_PERICENTER":310.1775,"MEAN_ANOMALY":49.9211,"EPHEMERIS_TYPE":0,"CLASSIFICATION_TYPE":"U","NORAD_CAT_ID":62625,"ELEMENT_SET_NO":999,"REV_AT_EPOCH":6371,"BSTAR":0.00043519262,"MEAN_MOTION_DOT":0.00011487,"MEAN_MOTION_DDOT":0},{"OBJECT_NAME":"STARLINK-34070","OBJECT_ID":"2025-095Z","EPOCH":"2026-03-09T08:00:38.871072","MEAN_MOTION":15.27579271,"ECCENTRICITY":0.00010315,"INCLINATION":42.9995,"RA_OF_ASC_NODE":178.1983,"ARG_OF_PERICENTER":242.774,"MEAN_ANOMALY":117.3007,"EPHEMERIS_TYPE":0,"CLASSIFICATION_TYPE":"U","NORAD_CAT_ID":63913,"ELEMENT_SET_NO":999,"REV_AT_EPOCH":4772,"BSTAR":0.0010984871,"MEAN_MOTION_DOT":0.00030089,"MEAN_MOTION_DDOT":0}]
